[{"OBJECT_NAME":"COSMOS 2251 DEB","OBJECT_ID":"1993-036KM","EPOCH":"2026-03-06T08:43:23.325024","MEAN_MOTION":14.53628856,"ECCENTRICITY":0.00088217,"INCLINATION":74.0429,"RA_OF_ASC_NODE":24.9528,"ARG_OF_PERICENTER":84.3736,"MEAN_ANOMALY":71.9904,"EPHEMERIS_TYPE":0,"CLASSIFICATION_TYPE":"U","NORAD_CAT_ID":34116,"ELEMENT_SET_NO":999,"REV_AT_EPOCH":89701,"BSTAR":0.0010668378,"MEAN_MOTION_DOT":4.439e-5,"MEAN_MOTION_DDOT":0},{"OBJECT_NAME":"COSMOS 2251 DEB","OBJECT_ID":"1993-036KN","EPOCH":"2026-03-06T15:21:42.488640","MEAN_MOTION":14.40422438,"ECCENTRICITY":0.00572125,"INCLINATION":74.0403,"RA_OF_ASC_NODE":188.7663,"ARG_OF_PERICENTER":246.7289,"MEAN_ANOMALY":112.7837,"EPHEMERIS_TYPE":0,"CLASSIFICATION_TYPE":"U","NORAD_CAT_ID":34117,"ELEMENT_SET_NO":999,"REV_AT_EPOCH":89331,"BSTAR":0.0010578004,"MEAN_MOTION_DOT":3.4e-5,"MEAN_MOTION_DDOT":0},{"OBJECT_NAME":"COSMOS 2251 DEB","OBJECT_ID":"1993-036KP","EPOCH":"2026-03-06T09:50:13.040160","MEAN_MOTION":14.97850768,"ECCENTRICITY":0.0062062,"INCLINATION":73.9495,"RA_OF_ASC_NODE":79.4828,"ARG_OF_PERICENTER":251.1969,"MEAN_ANOMALY":231.5962,"EPHEMERIS_TYPE":0,"CLASSIFICATION_TYPE":"U","NORAD_CAT_ID":34118,"ELEMENT_SET_NO":999,"REV_AT_EPOCH":90427,"BSTAR":0.002120838,"MEAN_MOTION_DOT":0.00026014,"MEAN_MOTION_DDOT":0},{"OBJECT_NAME":"COSMOS 2251 DEB","OBJECT_ID":"1993-036KR","EPOCH":"2026-03-06T09:48:13.823712","MEAN_MOTION":13.98781447,"ECCENTRICITY":0.01845384,"INCLINATION":73.99,"RA_OF_ASC_NODE":71.2727,"ARG_OF_PERICENTER":241.0728,"MEAN_ANOMALY":233.0401,"EPHEMERIS_TYPE":0,"CLASSIFICATION_TYPE":"U","NORAD_CAT_ID":34120,"ELEMENT_SET_NO":999,"REV_AT_EPOCH":87150,"BSTAR":0.00035233459,"MEAN_MOTION_DOT":5.61e-6,"MEAN_MOTION_DDOT":0},{"OBJECT_NAME":"COSMOS 2251 DEB","OBJECT_ID":"1993-036KS","EPOCH":"2026-03-06T10:00:13.957344","MEAN_MOTION":13.92276942,"ECCENTRICITY":0.02390858,"INCLINATION":73.9923,"RA_OF_ASC_NODE":313.7303,"ARG_OF_PERICENTER":141.4675,"MEAN_ANOMALY":36.3329,"EPHEMERIS_TYPE":0,"CLASSIFICATION_TYPE":"U","NORAD_CAT_ID":34121,"ELEMENT_SET_NO":999,"REV_AT_EPOCH":86289,"BSTAR":0.0012782465,"MEAN_MOTION_DOT":2.05e-5,"MEAN_MOTION_DDOT":0},{"OBJECT_NAME":"COSMOS 2251 DEB","OBJECT_ID":"1993-036KT","EPOCH":"2026-03-06T02:52:49.931904","MEAN_MOTION":14.66304735,"ECCENTRICITY":0.0083606,"INCLINATION":74.0379,"RA_OF_ASC_NODE":318.055,"ARG_OF_PERICENTER":194.4843,"MEAN_ANOMALY":289.0041,"EPHEMERIS_TYPE":0,"CLASSIFICATION_TYPE":"U","NORAD_CAT_ID":34122,"ELEMENT_SET_NO":999,"REV_AT_EPOCH":89906,"BSTAR":0.00089246483,"MEAN_MOTION_DOT":5.158e-5,"MEAN_MOTION_DDOT":0},{"OBJECT_NAME":"COSMOS 2251 DEB","OBJECT_ID":"1993-036KY","EPOCH":"2026-03-06T11:22:16.370112","MEAN_MOTION":14.32349518,"ECCENTRICITY":0.01125256,"INCLINATION":74.1757,"RA_OF_ASC_NODE":252.4355,"ARG_OF_PERICENTER":67.9821,"MEAN_ANOMALY":314.2034,"EPHEMERIS_TYPE":0,"CLASSIFICATION_TYPE":"U","NORAD_CAT_ID":34127,"ELEMENT_SET_NO":999,"REV_AT_EPOCH":87970,"BSTAR":0.0014919756,"MEAN_MOTION_DOT":4.302e-5,"MEAN_MOTION_DDOT":0},{"OBJECT_NAME":"COSMOS 2251 DEB","OBJECT_ID":"1993-036KZ","EPOCH":"2026-03-06T05:33:32.641056","MEAN_MOTION":15.07548453,"ECCENTRICITY":0.00280384,"INCLINATION":73.9945,"RA_OF_ASC_NODE":125.6016,"ARG_OF_PERICENTER":233.5022,"MEAN_ANOMALY":188.8716,"EPHEMERIS_TYPE":0,"CLASSIFICATION_TYPE":"U","NORAD_CAT_ID":34128,"ELEMENT_SET_NO":999,"REV_AT_EPOCH":90422,"BSTAR":0.0023535864,"MEAN_MOTION_DOT":0.00036242,"MEAN_MOTION_DDOT":0},{"OBJECT_NAME":"COSMOS 2251 DEB","OBJECT_ID":"1993-036LA","EPOCH":"2026-03-06T16:40:22.727136","MEAN_MOTION":14.77481028,"ECCENTRICITY":0.0034641,"INCLINATION":74.0351,"RA_OF_ASC_NODE":175.0238,"ARG_OF_PERICENTER":241.0835,"MEAN_ANOMALY":118.6864,"EPHEMERIS_TYPE":0,"CLASSIFICATION_TYPE":"U","NORAD_CAT_ID":34129,"ELEMENT_SET_NO":999,"REV_AT_EPOCH":62537,"BSTAR":0.0019476,"MEAN_MOTION_DOT":0.00014018,"MEAN_MOTION_DDOT":0},{"OBJECT_NAME":"COSMOS 2251 DEB","OBJECT_ID":"1993-036LH","EPOCH":"2026-03-06T10:53:23.796960","MEAN_MOTION":14.80758336,"ECCENTRICITY":0.00860408,"INCLINATION":74.0182,"RA_OF_ASC_NODE":237.4392,"ARG_OF_PERICENTER":337.3718,"MEAN_ANOMALY":51.1218,"EPHEMERIS_TYPE":0,"CLASSIFICATION_TYPE":"U","NORAD_CAT_ID":34136,"ELEMENT_SET_NO":999,"REV_AT_EPOCH":91249,"BSTAR":0.0004493131,"MEAN_MOTION_DOT":3.651e-5,"MEAN_MOTION_DDOT":0},{"OBJECT_NAME":"COSMOS 2251 DEB","OBJECT_ID":"1993-036LL","EPOCH":"2026-03-06T13:06:35.676000","MEAN_MOTION":14.60556753,"ECCENTRICITY":0.00387877,"INCLINATION":74.0284,"RA_OF_ASC_NODE":94.1323,"ARG_OF_PERICENTER":152.6286,"MEAN_ANOMALY":2.1293,"EPHEMERIS_TYPE":0,"CLASSIFICATION_TYPE":"U","NORAD_CAT_ID":34139,"ELEMENT_SET_NO":999,"REV_AT_EPOCH":89372,"BSTAR":0.0012560074,"MEAN_MOTION_DOT":6.141e-5,"MEAN_MOTION_DDOT":0},{"OBJECT_NAME":"COSMOS 2251 DEB","OBJECT_ID":"1993-036LN","EPOCH":"2026-03-06T10:49:19.907040","MEAN_MOTION":14.50449486,"ECCENTRICITY":0.00496268,"INCLINATION":74.0089,"RA_OF_ASC_NODE":231.4407,"ARG_OF_PERICENTER":297.363,"MEAN_ANOMALY":92.7684,"EPHEMERIS_TYPE":0,"CLASSIFICATION_TYPE":"U","NORAD_CAT_ID":34141,"ELEMENT_SET_NO":999,"REV_AT_EPOCH":88907,"BSTAR":0.0019882101,"MEAN_MOTION_DOT":7.877e-5,"MEAN_MOTION_DDOT":0},{"OBJECT_NAME":"COSMOS 2251 DEB","OBJECT_ID":"1993-036LQ","EPOCH":"2026-03-06T14:02:15.458496","MEAN_MOTION":14.65794026,"ECCENTRICITY":0.00512382,"INCLINATION":74.0116,"RA_OF_ASC_NODE":144.9811,"ARG_OF_PERICENTER":276.9323,"MEAN_ANOMALY":82.6018,"EPHEMERIS_TYPE":0,"CLASSIFICATION_TYPE":"U","NORAD_CAT_ID":34270,"ELEMENT_SET_NO":999,"REV_AT_EPOCH":90324,"BSTAR":0.00090361401,"MEAN_MOTION_DOT":4.996e-5,"MEAN_MOTION_DDOT":0},{"OBJECT_NAME":"COSMOS 2251 DEB","OBJECT_ID":"1993-036LR","EPOCH":"2026-03-06T09:13:26.745312","MEAN_MOTION":14.73358077,"ECCENTRICITY":0.00128491,"INCLINATION":74.0204,"RA_OF_ASC_NODE":36.4585,"ARG_OF_PERICENTER":73.9571,"MEAN_ANOMALY":80.2491,"EPHEMERIS_TYPE":0,"CLASSIFICATION_TYPE":"U","NORAD_CAT_ID":34271,"ELEMENT_SET_NO":999,"REV_AT_EPOCH":89465,"BSTAR":0.0025526852,"MEAN_MOTION_DOT":0.00016564,"MEAN_MOTION_DDOT":0},{"OBJECT_NAME":"COSMOS 2251 DEB","OBJECT_ID":"1993-036LT","EPOCH":"2026-03-06T18:22:40.819872","MEAN_MOTION":14.62089373,"ECCENTRICITY":0.0012971,"INCLINATION":74.0344,"RA_OF_ASC_NODE":286.6555,"ARG_OF_PERICENTER":24.1115,"MEAN_ANOMALY":101.8589,"EPHEMERIS_TYPE":0,"CLASSIFICATION_TYPE":"U","NORAD_CAT_ID":34273,"ELEMENT_SET_NO":999,"REV_AT_EPOCH":89849,"BSTAR":0.00089908,"MEAN_MOTION_DOT":4.495e-5,"MEAN_MOTION_DDOT":0},{"OBJECT_NAME":"COSMOS 2251 DEB","OBJECT_ID":"1993-036LU","EPOCH":"2026-03-06T12:28:18.306048","MEAN_MOTION":14.6590376,"ECCENTRICITY":0.00211551,"INCLINATION":74.001,"RA_OF_ASC_NODE":267.0028,"ARG_OF_PERICENTER":31.8423,"MEAN_ANOMALY":354.7622,"EPHEMERIS_TYPE":0,"CLASSIFICATION_TYPE":"U","NORAD_CAT_ID":34274,"ELEMENT_SET_NO":999,"REV_AT_EPOCH":89903,"BSTAR":0.0011232692,"MEAN_MOTION_DOT":6.136e-5,"MEAN_MOTION_DDOT":0}]
