COSMOS 2251 DEB         
1 34116U 93036KM  26065.36346441  .00004439  00000+0  10668-2 0  9998
2 34116  74.0429  24.9528 0008821  84.3736  71.9904 14.53628856897016
COSMOS 2251 DEB         
1 34117U 93036KN  26065.64007510  .00003400  00000+0  10578-2 0  9998
2 34117  74.0403 188.7663 0057212 246.7289 112.7837 14.40422438893315
COSMOS 2251 DEB         
1 34118U 93036KP  26065.40987315  .00026014  00000+0  21208-2 0  9991
2 34118  73.9495  79.4828 0062062 251.1969 231.5962 14.97850768904278
COSMOS 2251 DEB         
1 34120U 93036KR  26065.40849333  .00000561  00000+0  35233-3 0  9994
2 34120  73.9900  71.2727 0184538 241.0728 233.0401 13.98781447871505
COSMOS 2251 DEB         
1 34121U 93036KS  26065.41682821  .00002050  00000+0  12782-2 0  9991
2 34121  73.9923 313.7303 0239085 141.4675  36.3329 13.92276942862895
COSMOS 2251 DEB         
1 34122U 93036KT  26065.12002236  .00005158  00000+0  89246-3 0  9998
2 34122  74.0379 318.0550 0083606 194.4843 289.0041 14.66304735899067
COSMOS 2251 DEB         
1 34127U 93036KY  26065.47380058  .00004302  00000+0  14920-2 0  9998
2 34127  74.1757 252.4355 0112525  67.9821 314.2034 14.32349518879703
COSMOS 2251 DEB         
1 34128U 93036KZ  26065.23162779  .00036242  00000+0  23536-2 0  9992
2 34128  73.9945 125.6016 0028038 233.5022 188.8716 15.07548453904224
COSMOS 2251 DEB         
1 34129U 93036LA  26065.69470749  .00014018  00000+0  19476-2 0  9997
2 34129  74.0351 175.0238 0034641 241.0835 118.6864 14.77481028625377
COSMOS 2251 DEB         
1 34136U 93036LH  26065.45374765  .00003651  00000+0  44931-3 0  9996
2 34136  74.0182 237.4392 0086040 337.3718  51.1218 14.80758336912499
COSMOS 2251 DEB         
1 34139U 93036LL  26065.54624625  .00006141  00000+0  12560-2 0  9991
2 34139  74.0284  94.1323 0038787 152.6286   2.1293 14.60556753893720
COSMOS 2251 DEB         
1 34141U 93036LN  26065.45092485  .00007877  00000+0  19882-2 0  9998
2 34141  74.0089 231.4407 0049626 297.3630  92.7684 14.50449486889074
COSMOS 2251 DEB         
1 34270U 93036LQ  26065.58490114  .00004996  00000+0  90361-3 0  9997
2 34270  74.0116 144.9811 0051238 276.9323  82.6018 14.65794026903243
COSMOS 2251 DEB         
1 34271U 93036LR  26065.38433733  .00016564  00000+0  25527-2 0  9995
2 34271  74.0204  36.4585 0012849  73.9571  80.2491 14.73358077894654
COSMOS 2251 DEB         
1 34273U 93036LT  26065.76575023  .00004495  00000+0  89908-3 0  9992
2 34273  74.0344 286.6555 0012971  24.1115 101.8589 14.62089373898497
COSMOS 2251 DEB         
1 34274U 93036LU  26065.51965632  .00006136  00000+0  11233-2 0  9994
2 34274  74.0010 267.0028 0021155  31.8423 354.7622 14.65903760899033
